{
    "links": {
        "self": "http://www.neowsapp.com/rest/v1/neo/3781866?api_key=iIulBulltgU6a56xZRHN4H3l9WmuAYTsLGpBGhQ2"
    },
    "id": "3781866",
    "neo_reference_id": "3781866",
    "name": "(2017 SA14)",
    "designation": "2017 SA14",
    "nasa_jpl_url": "http://ssd.jpl.nasa.gov/sbdb.cgi?sstr=3781866",
    "absolute_magnitude_h": 23.479,
    "estimated_diameter": {
        "kilometers": {
            "estimated_diameter_min": 0.0535494453,
            "estimated_diameter_max": 0.1197401999
        },
        "meters": {
            "estimated_diameter_min": 53.5494453148,
            "estimated_diameter_max": 119.7401998814
        },
        "miles": {
            "estimated_diameter_min": 0.0332740724,
            "estimated_diameter_max": 0.0744030877
        },
        "feet": {
            "estimated_diameter_min": 175.6871621668,
            "estimated_diameter_max": 392.8484373789
        }
    },
    "is_potentially_hazardous_asteroid": false,
    "close_approach_data": [
        {
            "close_approach_date": "2017-09-18",
            "close_approach_date_full": "2017-Sep-18 22:32",
            "epoch_date_close_approach": 1505773920000,
            "relative_velocity": {
                "kilometers_per_second": "10.7629631765",
                "kilometers_per_hour": "38746.6674353672",
                "miles_per_hour": "24075.6723294925"
            },
            "miss_distance": {
                "astronomical": "0.2527618782",
                "lunar": "98.3243706198",
                "kilometers": "37812638.595919434",
                "miles": "23495684.1141548292"
            },
            "orbiting_body": "Earth"
        }
    ],
    "orbital_data": {
        "orbit_id": "1",
        "orbit_determination_date": "2017-09-27 07:42:02",
        "first_observation_date": "2017-09-24",
        "last_observation_date": "2017-09-26",
        "data_arc_in_days": 2,
        "observations_used": 12,
        "orbit_uncertainty": "9",
        "minimum_orbit_intersection": ".251214",
        "jupiter_tisserand_invariant": "4.643",
        "epoch_osculation": "2458021.5",
        "eccentricity": ".1156328093283172",
        "semi_major_axis": "1.414768239087303",
        "inclination": "21.26112794997151",
        "ascending_node_longitude": "356.0636355889814",
        "orbital_period": "614.6478674764604",
        "perihelion_distance": "1.251174613053162",
        "perihelion_argument": "15.86174476317355",
        "aphelion_distance": "1.578361865121445",
        "perihelion_time": "2458038.184810240324",
        "mean_anomaly": "350.2276864456108",
        "mean_motion": ".5857012104801408",
        "equinox": "J2000",
        "orbit_class": {
            "orbit_class_type": "AMO",
            "orbit_class_description": "Near-Earth asteroid orbits similar to that of 1221 Amor",
            "orbit_class_range": "1.017 AU < q (perihelion) < 1.3 AU"
        }
    },
    "is_sentry_object": false
}